{"type": "FeatureCollection", "features": [ {"type": "Feature", "properties": {"norad_id": 31843, "name": "FENGYUN 1C DEB", "group": "fengyun-1c-debris", "lat": -17.737135437869522, "lon": 95.37541052391418, "alt_km": 1620.8785426987988, "timestamp": "2025-12-02T19:35:50.840296+00:00", "meta": {"OBJECT_NAME": "FENGYUN 1C DEB", "OBJECT_ID": "1999-025CJH", "EPOCH": "2025-11-30T16:12:01.946592", "MEAN_MOTION": 13.33408677, "ECCENTRICITY": 0.06421204, "INCLINATION": 99.2808, "RA_OF_ASC_NODE": 276.419, "ARG_OF_PERICENTER": 23.7479, "MEAN_ANOMALY": 339.1932, "EPHEMERIS_TYPE": 0, "CLASSIFICATION_TYPE": "U", "NORAD_CAT_ID": 31843, "ELEMENT_SET_NO": 999, "REV_AT_EPOCH": 64535, "BSTAR": 0.0062667662, "MEAN_MOTION_DOT": 0.0001, "MEAN_MOTION_DDOT": 0}, "tle": {"line1": "1 31843U 99025CJH 25334.67502253  .00010000  00000+0  62668-2 0  9991", "line2": "2 31843  99.2808 276.4190 0642120  23.7479 339.1932 13.33408677645358"}}, "geometry": {"type": "Point", "coordinates": [95.37541052391418, -17.737135437869522]}}, {"type": "Feature", "properties": {"norad_id": 31844, "name": "FENGYUN 1C DEB", "group": "fengyun-1c-debris", "lat": 68.07350059268553, "lon": 170.73199470941003, "alt_km": 820.8995328709898, "timestamp": "2025-12-02T19:35:50.840306+00:00", "meta": {"OBJECT_NAME": "FENGYUN 1C DEB", "OBJECT_ID": "1999-025CJJ", "EPOCH": "2025-11-30T16:20:55.349088", "MEAN_MOTION": 14.19670592, "ECCENTRICITY": 0.01037427, "INCLINATION": 100.3009, "RA_OF_ASC_NODE": 321.3925, "ARG_OF_PERICENTER": 23.7692, "MEAN_ANOMALY": 336.8222, "EPHEMERIS_TYPE": 0, "CLASSIFICATION_TYPE": "U", "NORAD_CAT_ID": 31844, "ELEMENT_SET_NO": 999, "REV_AT_EPOCH": 95161, "BSTAR": 0.00078280219, "MEAN_MOTION_DOT": 1.689e-05, "MEAN_MOTION_DDOT": 0}, "tle": {"line1": "1 31844U 99025CJJ 25334.68119617  .00001689  00000+0  78280-3 0  9992", "line2": "2 31844 100.3009 321.3925 0103742  23.7692 336.8222 14.19670592951618"}}, "geometry": {"type": "Point", "coordinates": [170.73199470941003, 68.07350059268553]}}, {"type": "Feature", "properties": {"norad_id": 31850, "name": "FENGYUN 1C DEB", "group": "fengyun-1c-debris", "lat": -68.59880079668869, "lon": 42.484616596879356, "alt_km": 536.1161046831394, "timestamp": "2025-12-02T19:35:50.840316+00:00", "meta": {"OBJECT_NAME": "FENGYUN 1C DEB", "OBJECT_ID": "1999-025CJQ", "EPOCH": "2025-12-01T20:22:02.943552", "MEAN_MOTION": 15.30101439, "ECCENTRICITY": 0.00812319, "INCLINATION": 98.576, "RA_OF_ASC_NODE": 18.7204, "ARG_OF_PERICENTER": 126.804, "MEAN_ANOMALY": 234.0686, "EPHEMERIS_TYPE": 0, "CLASSIFICATION_TYPE": "U", "NORAD_CAT_ID": 31850, "ELEMENT_SET_NO": 999, "REV_AT_EPOCH": 65662, "BSTAR": 0.0030371195, "MEAN_MOTION_DOT": 0.00098889, "MEAN_MOTION_DDOT": 0}, "tle": {"line1": "1 31850U 99025CJQ 25335.84864518  .00098889  00000+0  30371-2 0  9991", "line2": "2 31850  98.5760  18.7204 0081231 126.8040 234.0686 15.30101439656623"}}, "geometry": {"type": "Point", "coordinates": [42.484616596879356, -68.59880079668869]}}, {"type": "Feature", "properties": {"norad_id": 31854, "name": "FENGYUN 1C DEB", "group": "fengyun-1c-debris", "lat": -64.71814362232212, "lon": -0.4493151319262108, "alt_km": 920.4260214564229, "timestamp": "2025-12-02T19:35:50.840327+00:00", "meta": {"OBJECT_NAME": "FENGYUN 1C DEB", "OBJECT_ID": "1999-025CJU", "EPOCH": "2025-12-01T23:22:42.504384", "MEAN_MOTION": 14.03055387, "ECCENTRICITY": 0.00719469, "INCLINATION": 98.8477, "RA_OF_ASC_NODE": 339.4764, "ARG_OF_PERICENTER": 170.7809, "MEAN_ANOMALY": 189.4697, "EPHEMERIS_TYPE": 0, "CLASSIFICATION_TYPE": "U", "NORAD_CAT_ID": 31854, "ELEMENT_SET_NO": 999, "REV_AT_EPOCH": 69121, "BSTAR": 0.00025761454, "MEAN_MOTION_DOT": 3.67e-06, "MEAN_MOTION_DDOT": 0}, "tle": {"line1": "1 31854U 99025CJU 25335.97410306  .00000367  00000+0  25761-3 0  9993", "line2": "2 31854  98.8477 339.4764 0071946 170.7809 189.4697 14.03055387691210"}}, "geometry": {"type": "Point", "coordinates": [-0.4493151319262108, -64.71814362232212]}}, {"type": "Feature", "properties": {"norad_id": 31857, "name": "FENGYUN 1C DEB", "group": "fengyun-1c-debris", "lat": 83.80554594952719, "lon": -81.11460363686787, "alt_km": 1194.237672346344, "timestamp": "2025-12-02T19:35:50.840337+00:00", "meta": {"OBJECT_NAME": "FENGYUN 1C DEB", "OBJECT_ID": "1999-025CJX", "EPOCH": "2025-12-01T20:13:56.835552", "MEAN_MOTION": 13.61858254, "ECCENTRICITY": 0.03084927, "INCLINATION": 96.1896, "RA_OF_ASC_NODE": 9.3724, "ARG_OF_PERICENTER": 312.5702, "MEAN_ANOMALY": 44.9786, "EPHEMERIS_TYPE": 0, "CLASSIFICATION_TYPE": "U", "NORAD_CAT_ID": 31857, "ELEMENT_SET_NO": 999, "REV_AT_EPOCH": 61481, "BSTAR": 0.0021184073, "MEAN_MOTION_DOT": 2.215e-05, "MEAN_MOTION_DDOT": 0}, "tle": {"line1": "1 31857U 99025CJX 25335.84301893  .00002215  00000+0  21184-2 0  9990", "line2": "2 31857  96.1896   9.3724 0308492 312.5702  44.9786 13.61858254614817"}}, "geometry": {"type": "Point", "coordinates": [-81.11460363686787, 83.80554594952719]}}, {"type": "Feature", "properties": {"norad_id": 31861, "name": "FENGYUN 1C DEB", "group": "fengyun-1c-debris", "lat": 77.19319479019514, "lon": 61.859288721977364, "alt_km": 1383.7690780047596, "timestamp": "2025-12-02T19:35:50.840347+00:00", "meta": {"OBJECT_NAME": "FENGYUN 1C DEB", "OBJECT_ID": "1999-025CKB", "EPOCH": "2025-11-30T18:20:57.621120", "MEAN_MOTION": 13.30200627, "ECCENTRICITY": 0.04966148, "INCLINATION": 102.3423, "RA_OF_ASC_NODE": 165.0071, "ARG_OF_PERICENTER": 230.9853, "MEAN_ANOMALY": 124.6046, "EPHEMERIS_TYPE": 0, "CLASSIFICATION_TYPE": "U", "NORAD_CAT_ID": 31861, "ELEMENT_SET_NO": 999, "REV_AT_EPOCH": 66608, "BSTAR": 0.0034105388, "MEAN_MOTION_DOT": 3.105e-05, "MEAN_MOTION_DDOT": 0}, "tle": {"line1": "1 31861U 99025CKB 25334.76455580  .00003105  00000+0  34105-2 0  9994", "line2": "2 31861 102.3423 165.0071 0496614 230.9853 124.6046 13.30200627666089"}}, "geometry": {"type": "Point", "coordinates": [61.859288721977364, 77.19319479019514]}}, {"type": "Feature", "properties": {"norad_id": 31877, "name": "FENGYUN 1C DEB", "group": "fengyun-1c-debris", "lat": -61.69027392549214, "lon": 62.58195439094367, "alt_km": 500.2294928856072, "timestamp": "2025-12-02T19:35:50.840357+00:00", "meta": {"OBJECT_NAME": "FENGYUN 1C DEB", "OBJECT_ID": "1999-025CKC", "EPOCH": "2025-12-02T10:16:26.842080", "MEAN_MOTION": 15.01124585, "ECCENTRICITY": 0.0104713, "INCLINATION": 99.0053, "RA_OF_ASC_NODE": 45.0099, "ARG_OF_PERICENTER": 313.1217, "MEAN_ANOMALY": 46.128, "EPHEMERIS_TYPE": 0, "CLASSIFICATION_TYPE": "U", "NORAD_CAT_ID": 31877, "ELEMENT_SET_NO": 999, "REV_AT_EPOCH": 98887, "BSTAR": 0.000887, "MEAN_MOTION_DOT": 0.00012703, "MEAN_MOTION_DDOT": 0}, "tle": {"line1": "1 31877U 99025CKC 25336.42808845  .00012703  00000+0  88700-3 0  9997", "line2": "2 31877  99.0053  45.0099 0104713 313.1217  46.1280 15.01124585988878"}}, "geometry": {"type": "Point", "coordinates": [62.58195439094367, -61.69027392549214]}}, {"type": "Feature", "properties": {"norad_id": 31878, "name": "FENGYUN 1C DEB", "group": "fengyun-1c-debris", "lat": -3.252060004930517, "lon": -100.92660302047987, "alt_km": 611.3325489723002, "timestamp": "2025-12-02T19:35:50.840368+00:00", "meta": {"OBJECT_NAME": "FENGYUN 1C DEB", "OBJECT_ID": "1999-025CKD", "EPOCH": "2025-11-28T12:08:37.190400", "MEAN_MOTION": 14.85316011, "ECCENTRICITY": 0.00849368, "INCLINATION": 99.4388, "RA_OF_ASC_NODE": 253.429, "ARG_OF_PERICENTER": 283.9567, "MEAN_ANOMALY": 75.2209, "EPHEMERIS_TYPE": 0, "CLASSIFICATION_TYPE": "U", "NORAD_CAT_ID": 31878, "ELEMENT_SET_NO": 999, "REV_AT_EPOCH": 97882, "BSTAR": 0.0015078054, "MEAN_MOTION_DOT": 0.00013773, "MEAN_MOTION_DDOT": 0}, "tle": {"line1": "1 31878U 99025CKD 25332.50598600  .00013773  00000+0  15078-2 0  9993", "line2": "2 31878  99.4388 253.4290 0084936 283.9567  75.2209 14.85316011978824"}}, "geometry": {"type": "Point", "coordinates": [-100.92660302047987, -3.252060004930517]}}, {"type": "Feature", "properties": {"norad_id": 31879, "name": "FENGYUN 1C DEB", "group": "fengyun-1c-debris", "lat": -48.38582482141273, "lon": 22.795192675259237, "alt_km": 899.3791036664716, "timestamp": "2025-12-02T19:35:50.840378+00:00", "meta": {"OBJECT_NAME": "FENGYUN 1C DEB", "OBJECT_ID": "1999-025CKE", "EPOCH": "2025-11-30T14:57:31.019616", "MEAN_MOTION": 14.42852783, "ECCENTRICITY": 0.02100165, "INCLINATION": 99.7083, "RA_OF_ASC_NODE": 211.4101, "ARG_OF_PERICENTER": 71.7903, "MEAN_ANOMALY": 290.6019, "EPHEMERIS_TYPE": 0, "CLASSIFICATION_TYPE": "U", "NORAD_CAT_ID": 31879, "ELEMENT_SET_NO": 999, "REV_AT_EPOCH": 63035, "BSTAR": 0.00030156484, "MEAN_MOTION_DOT": 1.248e-05, "MEAN_MOTION_DDOT": 0}, "tle": {"line1": "1 31879U 99025CKE 25334.62327569  .00001248  00000+0  30156-3 0  9992", "line2": "2 31879  99.7083 211.4101 0210016  71.7903 290.6019 14.42852783630351"}}, "geometry": {"type": "Point", "coordinates": [22.795192675259237, -48.38582482141273]}}, {"type": "Feature", "properties": {"norad_id": 31880, "name": "FENGYUN 1C DEB", "group": "fengyun-1c-debris", "lat": -68.12309055355065, "lon": -67.28496968850962, "alt_km": 908.9081715440425, "timestamp": "2025-12-02T19:35:50.840388+00:00", "meta": {"OBJECT_NAME": "FENGYUN 1C DEB", "OBJECT_ID": "1999-025CKF", "EPOCH": "2025-11-25T04:55:41.522880", "MEAN_MOTION": 13.89366235, "ECCENTRICITY": 0.01285165, "INCLINATION": 100.0297, "RA_OF_ASC_NODE": 130.6763, "ARG_OF_PERICENTER": 197.7169, "MEAN_ANOMALY": 161.9484, "EPHEMERIS_TYPE": 0, "CLASSIFICATION_TYPE": "U", "NORAD_CAT_ID": 31880, "ELEMENT_SET_NO": 999, "REV_AT_EPOCH": 62736, "BSTAR": 0.0005535194, "MEAN_MOTION_DOT": 6.7e-06, "MEAN_MOTION_DDOT": 0}, "tle": {"line1": "1 31880U 99025CKF 25329.20534170  .00000670  00000+0  55352-3 0  9993", "line2": "2 31880 100.0297 130.6763 0128516 197.7169 161.9484 13.89366235627363"}}, "geometry": {"type": "Point", "coordinates": [-67.28496968850962, -68.12309055355065]}}]}